[{"OBJECT_NAME":"KANOPUS-V 3","OBJECT_ID":"2018-014A","EPOCH":"2026-03-09T18:51:55.321344","MEAN_MOTION":15.22779463,"ECCENTRICITY":0.00015305,"INCLINATION":97.3645,"RA_OF_ASC_NODE":336.3173,"ARG_OF_PERICENTER":84.6861,"MEAN_ANOMALY":275.455,"EPHEMERIS_TYPE":0,"CLASSIFICATION_TYPE":"U","NORAD_CAT_ID":43180,"ELEMENT_SET_NO":999,"REV_AT_EPOCH":44959,"BSTAR":4.5590396e-5,"MEAN_MOTION_DOT":9.96e-6,"MEAN_MOTION_DDOT":0},{"OBJECT_NAME":"BANDWAGON-4 OBJECT D","OBJECT_ID":"2025-248D","EPOCH":"2026-03-08T15:55:23.357856","MEAN_MOTION":15.20246176,"ECCENTRICITY":0.0005553,"INCLINATION":45.4053,"RA_OF_ASC_NODE":299.733,"ARG_OF_PERICENTER":216.9625,"MEAN_ANOMALY":143.088,"EPHEMERIS_TYPE":0,"CLASSIFICATION_TYPE":"U","NORAD_CAT_ID":66296,"ELEMENT_SET_NO":999,"REV_AT_EPOCH":1922,"BSTAR":0.00048956709,"MEAN_MOTION_DOT":0.00010544,"MEAN_MOTION_DDOT":0}]
